station_name,id,latitude,longitude,zip,ev_dc_fast_num,ev_level2_evse_num,ev_network
Star Nissan,44323,40.758245,-73.776954,11361,0.0,1.0,Non-Networked
Kings Nissan,44329,40.589167,-73.960707,11235,0.0,1.0,Non-Networked
Nissan of Queens,49938,40.68106,-73.84554,11417,0.0,1.0,Non-Networked
Dana Ford Lincoln,64140,40.587162,-74.194747,10314,0.0,1.0,Non-Networked
Bay Ridge Municipal Parking Garage,65288,40.621698,-74.02567,11209,0.0,5.0,EV Connect
St. George Courthouse,65296,40.639469,-74.076912,10301,0.0,3.0,EV Connect
Koeppel Nissan,85969,40.755072,-73.892094,11372,1.0,2.0,Non-Networked
Jerome 190th Street Municipal Parking,94830,40.86334,-73.900066,10468,0.0,5.0,EV Connect
Nissan of Staten Island,99500,40.581432,-74.097694,10306,0.0,1.0,Non-Networked
Mott Street Parking - Tesla Supercharger,102334,40.717522,-73.997302,10013,2.0,0.0,Tesla
W 75th Parking Garage - Tesla Supercharger,102335,40.780976,-73.980414,10023,4.0,0.0,Tesla
E 47th Street - Tesla Supercharger,102336,40.753356,-73.971685,10017,4.0,0.0,Tesla
WCS NS1 BOSTON RD,104341,40.846205,-73.876513,10460,0.0,1.0,ChargePoint Network
Astoria Central Parking - Tesla Destination,114881,40.762502,-73.924507,11106,0.0,4.0,Tesla Destination
Century Parking Corp - Tesla Destination,114888,40.878532,-73.916201,10463,0.0,4.0,Tesla Destination
Standard Parking 1360 Fulton Street - Tesla Destination,114889,40.680168,-73.946022,11216,0.0,2.0,Tesla Destination
Standard Parking 15 Metrotech - Tesla Destination,114890,40.693999,-73.983809,11201,0.0,3.0,Tesla Destination
Quik Park Armory Parking Inc. - Tesla Destination,114891,40.692635,-73.969935,11205,0.0,2.0,Tesla Destination
Discount Parking 180 Ashland Place - Tesla Destination,114892,40.689457,-73.978606,11217,0.0,2.0,Tesla Destination
iPark 22/34 N 6th Garage Corp - Tesla Destination,114893,40.719338,-73.963081,11211,0.0,4.0,Tesla Destination
Parkright 257 Gold Street - Tesla Destination,114895,40.696848,-73.983071,11201,0.0,3.0,Tesla Destination
Standard Parking Pierepoint Plaza - Tesla Destination,114896,40.695115,-73.990993,11201,0.0,3.0,Tesla Destination
Enterprise 309 Gold Street - Tesla Destination,114897,40.694841,-73.982849,11201,0.0,3.0,Tesla Destination
Standard Parking 1 Metrotech - Tesla Destination,114900,40.69306,-73.987222,11201,0.0,3.0,Tesla Destination
GGMC Belltel Car Park - Tesla Destination,114901,40.692579,-73.985252,11201,0.0,3.0,Tesla Destination
Quik Park 365 Management LLC - Tesla Destination,114902,40.677412,-73.990986,11231,0.0,3.0,Tesla Destination
GMC 388 Bridge Street - Tesla Destination,114903,40.691469,-73.985446,11201,0.0,3.0,Tesla Destination
Quik Park Brooklyn Bridge LLC - Tesla Destination,114904,40.692941,-74.000298,11201,0.0,3.0,Tesla Destination
Rapidpark 44 State Street - Tesla Destination,114905,40.692062,-73.99816,11201,0.0,3.0,Tesla Destination
Park Kwik LLC 50 Washington St. - Tesla Destination,114906,40.702882,-73.990594,11201,0.0,3.0,Tesla Destination
Kings County Parking - Tesla Destination,114907,40.65601,-73.940902,11203,0.0,2.0,Tesla Destination
1 Hotel Brooklyn Bridge - Tesla Destination,114908,40.701461,-73.995566,11201,0.0,7.0,Tesla Destination
"Littleman Driggs Parking, LLC - Tesla Destination",114910,40.715033,-73.958595,11211,0.0,3.0,Tesla Destination
GGMC Parking 66 Rockwell Pl Garage - Tesla Destination,114911,40.688086,-73.979234,11217,0.0,3.0,Tesla Destination
Standard Parking 200 Cadman Plaza West - Tesla Destination,114912,40.698707,-73.992365,11221,0.0,3.0,Tesla Destination
GGMC Parking 75 Smith St Garage - Tesla Destination,114913,40.689016,-73.988672,11201,0.0,3.0,Tesla Destination
Standard Parking 2 Metrotech - Tesla Destination,114914,40.693122,-73.985696,11201,0.0,3.0,Tesla Destination
Quik Park 81 Fleet Place LLC - Tesla Destination,114915,40.693248,-73.981744,11201,0.0,3.0,Tesla Destination
Rapidpark 906 Union Street - Tesla Destination,114916,40.672884,-73.971541,11215,0.0,3.0,Tesla Destination
MPG 100 Jay Street - Tesla Destination,114917,40.702194,-73.98672,10021,0.0,3.0,Tesla Destination
imPark 101 Bedford Ave - Tesla Destination,114918,40.719751,-73.954866,11211,0.0,3.0,Tesla Destination
Hampton Inn LaGuardia Airport - Tesla Destination,114937,40.767948,-73.867784,11369,0.0,1.0,Tesla Destination
MPG The Shops at Skyview - Tesla Destination,114939,40.75674,-73.836223,11354,0.0,3.0,Tesla Destination
Sylvan Pinnacle Garage - Tesla Destination,114940,40.718526,-73.83648,11375,0.0,4.0,Tesla Destination
MPG 1-50 51st Ave - Tesla Destination,114968,40.743049,-73.959245,11101,0.0,4.0,Tesla Destination
iPark 43-25 Hunter Street - Tesla Destination,114969,40.747589,-73.942612,11101,0.0,8.0,Tesla Destination
Little Man Parking (Queens West) - Tesla Destination,114970,40.745627,-73.955638,11109,0.0,3.0,Tesla Destination
Icon Parking 235 W 48th - Tesla Destination,114972,40.76073,-73.985995,10036,0.0,4.0,Tesla Destination
Icon Parking 360 E 65th - Tesla Destination,114973,40.766853,-73.967711,10065,0.0,4.0,Tesla Destination
Icon Parking 205 E 63rd St - Tesla Destination,114974,40.763981,-73.964368,10065,0.0,2.0,Tesla Destination
MPG 10 E 102nd Street - Tesla Destination,114983,40.79136,-73.952155,10029,0.0,3.0,Tesla Destination
Rapidpark 10 E 30th Street - Tesla Destination,114984,40.74556,-73.985539,10016,0.0,3.0,Tesla Destination
Icon Parking 1056 5th Avenue - Tesla Destination,114985,40.782031,-73.959484,10028,0.0,3.0,Tesla Destination
iPark 10 West 15th - Tesla Destination,114986,40.737171,-73.994331,10011,0.0,3.0,Tesla Destination
GGMC Parking 10 W 66th St Garage - Tesla Destination,114987,40.772742,-73.979503,10023,0.0,2.0,Tesla Destination
GGMC Parking Union Square Parking Garage - Tesla Destination,114988,40.734939,-73.989409,10003,0.0,6.0,Tesla Destination
Icon Parking 100 Riverside Blvd. - Tesla Destination,114989,40.775474,-73.989763,10024,0.0,3.0,Tesla Destination
Rapidpark 600 Columbus Ave-QBDestinationSiteID52405 - Tesla Destination,114990,40.788614,-73.97118,10024,0.0,3.0,Tesla Destination
Champion Parking E 16th Street - Tesla Destination,114991,40.735736,-73.988745,10003,0.0,3.0,Tesla Destination
Icon Parking 101 W 15th - Tesla Destination,114992,40.738371,-73.99688,10011,0.0,4.0,Tesla Destination
iPark NYC 88th Street Garage - Tesla Destination,114993,40.788008,-73.971611,10024,0.0,3.0,Tesla Destination
Icon Parking 101 West End Ave - Tesla Destination,114994,40.775065,-73.988572,10023,0.0,3.0,Tesla Destination
ABM Parking 475 Park Ave South LLC - Tesla Destination,114995,40.745603,-73.98185,10016,0.0,2.0,Tesla Destination
Rapidpark 99 Park Ave - Tesla Destination,114996,40.750013,-73.978525,10016,0.0,3.0,Tesla Destination
iPark 107 West 13th Street - Tesla Destination,114997,40.736973,-73.99787,10011,0.0,3.0,Tesla Destination
Icon Parking 11 5th Ave - Tesla Destination,114998,40.732085,-73.995829,10003,0.0,3.0,Tesla Destination
iPark NYC 1025 83rd - Tesla Destination,114999,40.779211,-73.960949,10028,0.0,3.0,Tesla Destination
GMC 111 E 82nd St - Tesla Destination,115000,40.77735,-73.958352,10065,0.0,3.0,Tesla Destination
iPark 112 E 65th Street - Tesla Destination,115001,40.766495,-73.9667,10065,0.0,3.0,Tesla Destination
Quik Park 1133 Garage LLC - Tesla Destination,115002,40.755856,-73.984313,10036,0.0,3.0,Tesla Destination
iPark 1510 Lex Garage Corp. - Tesla Destination,115003,40.787402,-73.950546,10029,0.0,3.0,Tesla Destination
ABM Parking 750 Lexington Ave LLC - Tesla Destination,115004,40.76306,-73.968409,10022,0.0,3.0,Tesla Destination
Icon Parking 12 East 9th Street - Tesla Destination,115005,40.732519,-73.995135,10003,0.0,3.0,Tesla Destination
MPG 121 Reade Street - Tesla Destination,115006,40.716268,-74.009491,10013,0.0,3.0,Tesla Destination
GMC Parking Narragansett - Tesla Destination,115007,40.7758,-73.95087,10065,0.0,3.0,Tesla Destination
Rapidpark 124 W 20th Street - Tesla Destination,115008,40.741554,-73.995403,10011,0.0,3.0,Tesla Destination
Quik Park Garden Lots LLC - Tesla Destination,115009,40.749073,-73.990032,10001,0.0,3.0,Tesla Destination
ABM Parking 13 East 54th Street LLC - Tesla Destination,115010,40.760648,-73.974193,10022,0.0,2.0,Tesla Destination
New York Hilton Midtown - Tesla Destination,115011,40.762234,-73.979036,10019,0.0,2.0,Tesla Destination
Icon Parking 1350 Avenue of the Americas - Tesla Destination,115013,40.762855,-73.977795,10019,0.0,3.0,Tesla Destination
Icon Parking 14-26 William Street - Tesla Destination,115014,40.704514,-74.01074,10004,0.0,3.0,Tesla Destination
Icon Parking OMNI - Tesla Destination,115015,40.77592,-73.98313,10023,0.0,3.0,Tesla Destination
Rapidpark 148 E 33rd Street - Tesla Destination,115016,40.745432,-73.97956,10016,0.0,3.0,Tesla Destination
Rapidpark 15 W 72nd Street - Tesla Destination,115017,40.776813,-73.977083,10023,0.0,3.0,Tesla Destination
Icon Parking 150 Charles Street - Tesla Destination,115018,40.734006,-74.009079,10014,0.0,3.0,Tesla Destination
Rapidpark 150 East 77th Street - Tesla Destination,115020,40.773256,-73.959334,10021,0.0,3.0,Tesla Destination
Standard Parking 151 W 17th Street - Tesla Destination,115021,40.740243,-73.997591,10011,0.0,3.0,Tesla Destination
Icon Parking 155 E 29th Street - Tesla Destination,115022,40.742821,-73.980913,10016,0.0,3.0,Tesla Destination
City Parking Garment One Garage - Tesla Destination,115023,40.746022,-73.978693,10016,0.0,3.0,Tesla Destination
Prime Parking Systems - 155 E 68th Street - Tesla Destination,115024,40.767743,-73.963665,10065,0.0,3.0,Tesla Destination
Champion Parking W 53rd Street - Tesla Destination,115025,40.763279,-73.98086,10019,0.0,3.0,Tesla Destination
Icon Parking 16 W 16th Street - Tesla Destination,115026,40.737891,-73.994058,10011,0.0,3.0,Tesla Destination
GGMC Parking Alfred - Tesla Destination,115027,40.771555,-73.986428,10023,0.0,3.0,Tesla Destination
iPark NYC E 77th Street - Tesla Destination,115028,40.773415,-73.959234,10014,0.0,3.0,Tesla Destination
Parkright 169 Ludlow Street - Tesla Destination,115029,40.721713,-73.987533,10012,0.0,3.0,Tesla Destination
Icon Parking 169 W 95th Street - Tesla Destination,115030,40.793158,-73.970319,10025,0.0,3.0,Tesla Destination
Residence Inn New York Manhattan - Tesla Destination,115031,40.764261,-73.982974,10019,0.0,2.0,Tesla Destination
Quikpark 173 W 12th Street - Tesla Destination,115032,40.737108,-74.000358,10011,0.0,3.0,Tesla Destination
Quik Park Hudson 180 LLC - Tesla Destination,115033,40.778412,-73.988294,10069,0.0,3.0,Tesla Destination
iPark NYC 183 E 73rd Street - Tesla Destination,115034,40.770601,-73.960531,10021,0.0,3.0,Tesla Destination
Icon Parking 240 East Broadway - Tesla Destination,115035,40.714821,-73.987138,10002,0.0,3.0,Tesla Destination
Glenwood Grand Tier Parking - Tesla Destination,115036,40.772574,-73.981951,10023,0.0,2.0,Tesla Destination
Standard Parking 20 W 13th Street - Tesla Destination,115037,40.735706,-73.995058,10011,0.0,3.0,Tesla Destination
Central Parking 200 Chambers - Tesla Destination,115038,40.716256,-74.012543,10007,0.0,3.0,Tesla Destination
Icon Parking 200 E 32nd Street - Tesla Destination,115039,40.744916,-73.980228,10016,0.0,3.0,Tesla Destination
Icon Parking 200 E 65th Street - Tesla Destination,115040,40.765108,-73.963389,10021,0.0,3.0,Tesla Destination
Enterprise Parking 200 E 69th St - Tesla Destination,115041,40.767615,-73.961509,10065,0.0,2.0,Tesla Destination
iPark 200 E 70th Street - Tesla Destination,115042,40.768283,-73.961149,10021,0.0,3.0,Tesla Destination
iPark NYC The Carnegie Garage - Tesla Destination,115043,40.783536,-73.949507,10128,0.0,3.0,Tesla Destination
GMC Copley Parking - Tesla Destination,115044,40.775283,-73.981627,10023,0.0,3.0,Tesla Destination
MPG 201 E 56th - Tesla Destination,115045,40.759437,-73.96767,10022,0.0,3.0,Tesla Destination
Icon Parking 203 E 61 Street - Tesla Destination,115046,40.762678,-73.965447,10021,0.0,3.0,Tesla Destination
Rapidpark 204 W 101st Street - Tesla Destination,115047,40.797359,-73.968718,10025,0.0,3.0,Tesla Destination
Champion Parking W 76th Street - Tesla Destination,115048,40.781547,-73.980475,10023,0.0,3.0,Tesla Destination
Icon Parking 810 Seventh Ave - Tesla Destination,115049,40.762568,-73.982718,10019,0.0,3.0,Tesla Destination
Standard Parking 21 East 15th Street - Tesla Destination,115050,40.736293,-73.991939,10003,0.0,3.0,Tesla Destination
Rapidpark 210 W 102nd Street - Tesla Destination,115051,40.798108,-73.968204,10025,0.0,3.0,Tesla Destination
Champion Parking 74 LLC - Tesla Destination,115052,40.780027,-73.982823,10023,0.0,3.0,Tesla Destination
GGMC Parking Seven Eleven (Located at 217 E 44th St) - Tesla Destination,115053,40.751867,-73.972873,10017,0.0,3.0,Tesla Destination
Icon Parking 220 Riverside Blvd - Tesla Destination,115054,40.779338,-73.987493,10024,0.0,6.0,Tesla Destination
iPark 200 West Garage Corp. - Tesla Destination,115055,40.746304,-73.995064,10001,0.0,3.0,Tesla Destination
Parkit 221 Thompson Street - Tesla Destination,115056,40.729234,-73.999013,10012,0.0,3.0,Tesla Destination
Icon Parking 225 W 83 Street - Tesla Destination,115058,40.786099,-73.977303,10024,0.0,3.0,Tesla Destination
Quik Park Broadway Garage LLC - Tesla Destination,115059,40.765844,-73.982481,10019,0.0,3.0,Tesla Destination
GGMC Yorkville Car Park - Tesla Destination,115060,40.782212,-73.95023,10128,0.0,3.0,Tesla Destination
Champion Parking 230 W 55th Street - Tesla Destination,115061,40.764748,-73.982676,10019,0.0,3.0,Tesla Destination
Icon Parking 237 West Thames - Tesla Destination,115062,40.708165,-74.016641,10280,0.0,3.0,Tesla Destination
Icon 299 Peal Street Seaport Parking - Tesla Destination,115063,40.707679,-74.004687,10069,0.0,3.0,Tesla Destination
iPark 245 East 63rd Street - Tesla Destination,115065,40.76332,-73.962938,10025,0.0,3.0,Tesla Destination
GGMC Ruppert Car Park - Tesla Destination,115066,40.78098,-73.951145,10128,0.0,3.0,Tesla Destination
iPark NYC 246 E 45 Street - Tesla Destination,115067,40.751847,-73.971348,10017,0.0,3.0,Tesla Destination
iPark NYC 250 West Parking - Tesla Destination,115068,40.742407,-73.999351,10011,0.0,3.0,Tesla Destination
Quik Park Columbia Garage LLC - Tesla Destination,115069,40.795624,-73.971961,10025,0.0,3.0,Tesla Destination
Quik Park 40 Riverside Blvd - Tesla Destination,115070,40.77373,-73.989713,10282,0.0,3.0,Tesla Destination
Rapidpark 25-27 Beekman Street - Tesla Destination,115071,40.710786,-74.006017,10038,0.0,3.0,Tesla Destination
Rapidpark 254 W 79th Street - Tesla Destination,115072,40.78411,-73.980641,10024,0.0,3.0,Tesla Destination
MPG 266 E 97 St - Tesla Destination,115073,40.785296,-73.947487,10021,0.0,3.0,Tesla Destination
Parkit 27 N Moore Street - Tesla Destination,115074,40.719869,-74.007447,10013,0.0,3.0,Tesla Destination
iPark 455 Central Park West - Tesla Destination,115075,40.797743,-73.960441,10025,0.0,3.0,Tesla Destination
Standard Parking 270 Greenwich - Tesla Destination,115076,40.715071,-74.012203,10007,0.0,3.0,Tesla Destination
Icon Parking 279 East 65th Street - Tesla Destination,115077,40.764552,-73.962034,10065,0.0,3.0,Tesla Destination
ABM Parking Services 285 W 50th Street LLC - Tesla Destination,115078,40.762411,-73.984495,10019,0.0,3.0,Tesla Destination
Parkright 39 E 29th Street - Tesla Destination,115079,40.744244,-73.984116,10016,0.0,3.0,Tesla Destination
iPark 3 E 67th Street - Tesla Destination,115080,40.769061,-73.96876,10065,0.0,3.0,Tesla Destination
Icon Parking 30 W 63rd St - Tesla Destination,115081,40.770772,-73.981795,10023,0.0,2.0,Tesla Destination
GGMC Parking Connaught - Tesla Destination,115082,40.757146,-73.966135,10022,0.0,3.0,Tesla Destination
Icon Parking 300 E 59th Street - Tesla Destination,115083,40.760462,-73.964086,10022,0.0,3.0,Tesla Destination
GGMC Parking E 74th Street - Tesla Destination,115084,40.769947,-73.956989,10021,0.0,3.0,Tesla Destination
Parkright 300 E 77th St - Tesla Destination,115085,40.771794,-73.955624,10075,0.0,3.0,Tesla Destination
Icon Parking 301 E 57 Street - Tesla Destination,115086,40.759127,-73.964684,10022,0.0,3.0,Tesla Destination
Parkit 301 E 64th - Tesla Destination,115087,40.763488,-73.961323,10065,0.0,3.0,Tesla Destination
Icon Parking 308 Greenwich - Tesla Destination,115088,40.717686,-74.010613,10013,0.0,3.0,Tesla Destination
Parkit 310 E 11th Street - Tesla Destination,115089,40.730017,-73.985512,10003,0.0,3.0,Tesla Destination
Waldorf Astoria New York - Tesla Destination,115090,40.756722,-73.97406,10022,0.0,2.0,Tesla Destination
Quik Park 311 West Broadway LLC - Tesla Destination,115091,40.721801,-74.004237,10013,0.0,2.0,Tesla Destination
Icon Parking 322 23rd Street - Tesla Destination,115092,40.737533,-73.980437,10010,0.0,3.0,Tesla Destination
Quik Park 32 Debrosses LLC - Tesla Destination,115093,40.723617,-74.010915,10013,0.0,3.0,Tesla Destination
Glenwood Belmont Parking - Tesla Destination,115094,40.760098,-73.988828,10021,0.0,2.0,Tesla Destination
Champion Parking W 57th Street - Tesla Destination,115095,40.76696,-73.983569,10019,0.0,3.0,Tesla Destination
GGMC Parking 8 E 33rd St Garage - Tesla Destination,115096,40.747478,-73.98504,10016,0.0,3.0,Tesla Destination
Icon Parking E 48th Street - Tesla Destination,115097,40.753079,-73.968032,10017,0.0,3.0,Tesla Destination
Icon Parking 330 E 39th Street - Tesla Destination,115098,40.746851,-73.972901,10016,0.0,3.0,Tesla Destination
Icon Parking 330 W 58th Street - Tesla Destination,115099,40.767879,-73.983656,10019,0.0,3.0,Tesla Destination
Apple Parking 332 W 11th Street - Tesla Destination,115100,40.735597,-74.007693,10014,0.0,3.0,Tesla Destination
iPark NYC 333 E 38th NYU - Tesla Destination,115101,40.746565,-73.971591,10016,0.0,3.0,Tesla Destination
Standard Parking Gateway Plaza Garage - Tesla Destination,115102,40.711145,-74.016332,10280,0.0,3.0,Tesla Destination
MPG 340 East 93rd - Tesla Destination,115103,40.781413,-73.946377,10128,0.0,3.0,Tesla Destination
Rapidpark 340 94th Street - Tesla Destination,115104,40.782091,-73.946029,10128,0.0,3.0,Tesla Destination
iPark NYC 345 East Garage - Tesla Destination,115105,40.773225,-73.952643,10075,0.0,3.0,Tesla Destination
Rapidpark 35 E 75th Street - Tesla Destination,115106,40.77364,-73.963722,10021,0.0,3.0,Tesla Destination
"The Carlyle Hotel, A Rosewood Hotel - Tesla Destination",115107,40.77438,-73.963157,10021,0.0,2.0,Tesla Destination
Quik Park 82nd Street LLC - Tesla Destination,115108,40.774511,-73.952039,10028,0.0,3.0,Tesla Destination
GGMC Parking 350 W 43rd Street Garage - Tesla Destination,115109,40.758586,-73.991341,10036,0.0,3.0,Tesla Destination
Rapidpark 351 East 83rd - Tesla Destination,115110,40.775123,-73.951193,10028,0.0,3.0,Tesla Destination
Icon Parking 35-39 East 61st Street - Tesla Destination,115111,40.764617,-73.969764,10021,0.0,3.0,Tesla Destination
Icon 376 Greenwich Street - Tesla Destination,115112,40.719825,-74.010137,10013,0.0,3.0,Tesla Destination
iPark NYU 377 E 33rd Street - Tesla Destination,115113,40.743405,-73.974735,10016,0.0,3.0,Tesla Destination
Icon Parking 111 8th Ave Parking - Tesla Destination,115114,40.741515,-74.004608,10011,0.0,4.0,Tesla Destination
Icon Parking Wall Park - Tesla Destination,115116,40.705922,-74.010175,10005,0.0,3.0,Tesla Destination
GGMC Parking Carnegie Garage - Tesla Destination,115117,40.78567,-73.954593,10128,0.0,3.0,Tesla Destination
City Parking RL Mercer Street - Tesla Destination,115118,40.721437,-74.001238,10025,0.0,3.0,Tesla Destination
Icon Parking 40 W 26th Street - Tesla Destination,115119,40.744467,-73.990662,10010,0.0,3.0,Tesla Destination
iPark NYC 400 E 35th NYU - Tesla Destination,115120,40.743971,-73.971882,10016,0.0,3.0,Tesla Destination
Icon Liberty View Parking - Tesla Destination,115121,40.716079,-74.015929,10016,0.0,3.0,Tesla Destination
Champion Parking 113 LLC - Tesla Destination,115122,40.80443,-73.961373,10025,0.0,3.0,Tesla Destination
Propark 401 W 110th Street - Tesla Destination,115123,40.802151,-73.961705,10025,0.0,3.0,Tesla Destination
Parkit 403 Lafayette St. - Tesla Destination,115124,40.728287,-73.992746,10003,0.0,2.0,Tesla Destination
iPark 41 E 85th Street - Tesla Destination,115125,40.779876,-73.958579,10028,0.0,3.0,Tesla Destination
Rapidpark 411 W 55th Street - Tesla Destination,115126,40.766971,-73.987441,10019,0.0,3.0,Tesla Destination
GGMC Parking 415 E 79th - Tesla Destination,115127,40.771918,-73.951679,10075,0.0,3.0,Tesla Destination
Icon Parking Sutton 53 - Tesla Destination,115128,40.755363,-73.963841,10022,0.0,3.0,Tesla Destination
Icon Parking Independent - Tesla Destination,115129,40.766708,-73.955483,10021,0.0,3.0,Tesla Destination
GMC Parking 420 E 53rd - Tesla Destination,115130,40.755289,-73.963804,10022,0.0,1.0,Tesla Destination
Sutton Place North Garage - Tesla Destination,115131,40.75552,-73.962734,10022,0.0,2.0,Tesla Destination
imPark 422 E 79th Street - Tesla Destination,115132,40.771879,-73.951627,10075,0.0,3.0,Tesla Destination
Quik Park West 23rd Street Garage LLC - Tesla Destination,115133,40.746847,-74.001816,10011,0.0,3.0,Tesla Destination
iPark NYC 425 E 58th Street - Tesla Destination,115134,40.758519,-73.961272,10022,0.0,3.0,Tesla Destination
City Parking E 61st Street - Tesla Destination,115135,40.760289,-73.959501,10065,0.0,3.0,Tesla Destination
ABM Parking 866 UN Plaza - Tesla Destination,115136,40.752641,-73.965187,10017,0.0,3.0,Tesla Destination
Quikpark 43-08 Crescent Street - Tesla Destination,115137,40.748757,-73.943417,11101,0.0,3.0,Tesla Destination
iPark NYC 44 Elizabeth Street - Tesla Destination,115138,40.716966,-73.996707,10013,0.0,3.0,Tesla Destination
Quik Park 86th St. LLC - Tesla Destination,115139,40.775968,-73.947846,10028,0.0,3.0,Tesla Destination
Rapidpark 480 Riverside (120th St) - Tesla Destination,115140,40.811187,-73.963571,10027,0.0,3.0,Tesla Destination
iPark NYC Central Harlem Garage Corp. - Tesla Destination,115141,40.80155,-73.948499,10026,0.0,3.0,Tesla Destination
Icon Parking 5 E 22nd Street - Tesla Destination,115142,40.740458,-73.989037,10010,0.0,3.0,Tesla Destination
GGMC Parking Battery Place - Tesla Destination,115143,40.706965,-74.017971,10280,0.0,3.0,Tesla Destination
GGMC Parking 50 E 79th St Garage - Tesla Destination,115144,40.776006,-73.961627,10075,0.0,2.0,Tesla Destination
MPG 500 West 30th - Tesla Destination,115145,40.752205,-74.001493,10001,0.0,3.0,Tesla Destination
Roger Smith Hotel - Tesla Destination,115146,40.754709,-73.973391,10017,0.0,1.0,Tesla Destination
Icon Parking 51 W 22nd - Tesla Destination,115147,40.742059,-73.992694,10010,0.0,3.0,Tesla Destination
Icon Parking 524 East 73rd - Tesla Destination,115149,40.766736,-73.951891,10021,0.0,3.0,Tesla Destination
GGMC Parking 51-53 E 76th St Carlyle Hotel - Tesla Destination,115150,40.774207,-73.96282,10021,0.0,2.0,Tesla Destination
iPark 530 E 80th Street - Tesla Destination,115151,40.771382,-73.948344,10075,0.0,3.0,Tesla Destination
MPG 530 West 30th - Tesla Destination,115152,40.75277,-74.00265,10001,0.0,3.0,Tesla Destination
Icon Parking E 88th Street - Tesla Destination,115153,40.776461,-73.944363,10128,0.0,3.0,Tesla Destination
Icon Parking 54 Murray Street - Tesla Destination,115154,40.714266,-74.009921,10007,0.0,3.0,Tesla Destination
Standard Parking 800 6th Ave - Tesla Destination,115155,40.745842,-73.990103,10001,0.0,3.0,Tesla Destination
Loews Regency New York - Tesla Destination,115156,40.764423,-73.968865,10065,0.0,3.0,Tesla Destination
MPG 543 W 110th Street Garage - Tesla Destination,115157,40.803963,-73.966032,10025,0.0,3.0,Tesla Destination
iPark NYC 549 W 23rd Street - Tesla Destination,115158,40.749255,-74.005914,10011,0.0,3.0,Tesla Destination
Icon Parking 55 W 14th Street - Tesla Destination,115159,40.737122,-73.996119,10011,0.0,3.0,Tesla Destination
GGMC Parking - 550 W 25th - Tesla Destination,115160,40.74979,-74.005335,10001,0.0,2.0,Tesla Destination
iPark Eleventh Avenue Garage Corp. - Tesla Destination,115161,40.753049,-74.003333,10001,0.0,3.0,Tesla Destination
Icon Parking 560 Third Ave - Tesla Destination,115162,40.747962,-73.976569,10016,0.0,3.0,Tesla Destination
Rapidpark 575 1st Avenue - Tesla Destination,115163,40.742735,-73.974296,10016,0.0,3.0,Tesla Destination
Parkit 575 Washington - Tesla Destination,115164,40.729364,-74.008513,10014,0.0,6.0,Tesla Destination
Standard Parking 58 W 58th Street - Tesla Destination,115165,40.76476,-73.976153,10019,0.0,3.0,Tesla Destination
iPark 59-63 Allen Street - Tesla Destination,115166,40.717143,-73.991597,10002,0.0,3.0,Tesla Destination
Champion Parking 90 LLC - Tesla Destination,115167,40.783085,-73.956304,10028,0.0,3.0,Tesla Destination
Champion Parking 60 East End Avenue - Tesla Destination,115168,40.772712,-73.947045,10028,0.0,3.0,Tesla Destination
RapidPark 600 Columbus Ave-QBDestinationSiteID18637 - Tesla Destination,115169,40.78859,-73.97118,10128,0.0,2.0,Tesla Destination
Quik Park 600 West 42nd Street (Silver Towers) LLC - Tesla Destination,115170,40.761018,-73.99878,10036,0.0,3.0,Tesla Destination
"MTP Parking, The Helena - Tesla Destination",115171,40.770709,-73.991725,10019,0.0,2.0,Tesla Destination
Champion Parking 60 E 8th - Tesla Destination,115172,40.730487,-73.993569,10003,0.0,3.0,Tesla Destination
iPark NYC 61 Jane Street - Tesla Destination,115173,40.738733,-74.006009,10014,0.0,3.0,Tesla Destination
Parkit 10 Wooster St. - Tesla Destination,115174,40.721658,-74.004402,10013,0.0,3.0,Tesla Destination
imPark 611 E 83rd Street - Tesla Destination,115175,40.772681,-73.945488,10028,0.0,3.0,Tesla Destination
MTP 625 W 57th Street - Tesla Destination,115176,40.77108,-73.993142,10019,0.0,3.0,Tesla Destination
Icon Parking University 10 Parking - Tesla Destination,115177,40.731887,-73.991906,10003,0.0,3.0,Tesla Destination
Parkright 670 W 43rd Street - Tesla Destination,115178,40.762189,-73.999714,10036,0.0,3.0,Tesla Destination
Quik Park Little West LLC - Tesla Destination,115179,40.70663,-74.016916,10280,0.0,3.0,Tesla Destination
Rapidpark 70 Riverside Dr - Tesla Destination,115180,40.784831,-73.982085,10024,0.0,2.0,Tesla Destination
The Peninsula Hotel New York - Tesla Destination,115181,40.7615893,-73.9752106,10019,0.0,1.0,Tesla Destination
Parkright 738 Greenwich Street - Tesla Destination,115182,40.734412,-74.007184,10014,0.0,3.0,Tesla Destination
iPark 650 Parking Corp - Tesla Destination,115185,40.768144,-73.966736,10065,0.0,3.0,Tesla Destination
Icon Parking 70 Gold Street - Tesla Destination,115186,40.710019,-74.004385,10038,0.0,3.0,Tesla Destination
Icon 80 Riverside Blvd - Tesla Destination,115187,40.775374,-73.989687,10069,0.0,3.0,Tesla Destination
Quik Park 808 Garage LLC - Tesla Destination,115188,40.793877,-73.967498,10025,0.0,3.0,Tesla Destination
"The Standard, High Line - Tesla Destination",115189,40.740939,-74.00824,10014,0.0,3.0,Tesla Destination
Chelnik Parking NYC 880 5th - Tesla Destination,115190,40.770292,-73.967735,10021,0.0,2.0,Tesla Destination
Icon 9-11 Park Ave - Tesla Destination,115191,40.747299,-73.981039,10016,0.0,3.0,Tesla Destination
Rapidpark 9-11 W 100th Street - Tesla Destination,115192,40.794519,-73.963445,10024,0.0,3.0,Tesla Destination
Quik Park West 57 LLC - Tesla Destination,115193,40.764259,-73.974972,10019,0.0,3.0,Tesla Destination
GGMC Parking Stewart House Garage - Tesla Destination,115194,40.731257,-73.992101,10003,0.0,3.0,Tesla Destination
Rapidpark 920 Park Avenue - Tesla Destination,115195,40.776574,-73.96047,10025,0.0,3.0,Tesla Destination
MPG 923 5th Ave - Tesla Destination,115196,40.773004,-73.966152,10021,0.0,3.0,Tesla Destination
GGMC The Cove - Tesla Destination,115197,40.707738,-74.016845,10280,0.0,3.0,Tesla Destination
Icon Parking 990 Ave of the Americas - Tesla Destination,115198,40.750844,-73.986188,10018,0.0,3.0,Tesla Destination
Angelina's Ristorante - Tesla Destination,115240,40.513465,-74.251418,10307,0.0,3.0,Tesla Destination
PV Parking 40-07 73rd St - Tesla Destination,115251,40.7464805,-73.8922584,11377,0.0,4.0,Tesla Destination
59 Allen Street - Tesla Supercharger,116808,40.717153,-73.991869,10002,4.0,0.0,Tesla
Queens Center - Tesla Supercharger,116809,40.735082,-73.87067,11373,10.0,0.0,Tesla
Brooklyn Museum - Tesla Supercharger,122247,40.669936,-73.963069,11225,10.0,0.0,Tesla
ImPark Underhill Garage - Tesla Destination,122469,40.6775259,-73.9657852,11238,0.0,4.0,Tesla Destination
ImPark 500 4th Ave - Tesla Destination,122471,40.6685202,-73.9904888,11215,0.0,4.0,Tesla Destination
Sherman Parking - Tesla Destination,122472,40.711729,-73.967698,11211,0.0,4.0,Tesla Destination
IMPark 353 4th Ave - Tesla Destination,122475,40.6732353,-73.9862323,11215,0.0,4.0,Tesla Destination
MTP Parking 363 Bond Street - Tesla Destination,122476,40.6781552,-73.9904425,11231,0.0,4.0,Tesla Destination
MTP Parking 568 Union Ave - Tesla Destination,122477,40.718054,-73.951847,11211,0.0,4.0,Tesla Destination
ImPark Atlantic Terrace - Tesla Destination,122478,40.6832871,-73.9735893,11217,0.0,4.0,Tesla Destination
Sylvan Kissena Garage LLC - Tesla Destination,122481,40.7538611,-73.823669,11355,0.0,4.0,Tesla Destination
Excel Parking 87-10 Northern Blvd - Tesla Destination,122482,40.755839,-73.8806563,11372,0.0,4.0,Tesla Destination
125-10 Queens Blvd Garage - Tesla Destination,122483,40.7119045,-73.8267727,11415,0.0,4.0,Tesla Destination
MTP Parking 31-00 47th Ave - Tesla Destination,122487,40.7416517,-73.9361599,11101,0.0,4.0,Tesla Destination
MTP Parking 41-42 24th Street - Tesla Destination,122488,40.7515557,-73.9414058,11101,0.0,4.0,Tesla Destination
iPark 400 E 85th St - Tesla Destination,122489,40.7759529,-73.949738,10028,0.0,4.0,Tesla Destination
Andaz Wall Street - Tesla Destination,122491,40.705115,-74.008089,10005,0.0,1.0,Tesla Destination
INDUSTRY CITY LOT B WEST,122592,40.659333,-74.006419,11232,0.0,2.0,ChargePoint Network
520806-Rockefeller Center,123040,40.758305,-73.980311,10036,0.0,8.0,SHELL_RECHARGE
Queens Family Court Municipal Garage,123069,40.701647,-73.803843,11433,0.0,3.0,EV Connect
Queens college,123127,40.735874,-73.815819,11367,0.0,8.0,EV Connect
The Veneto,124140,40.756766,-73.967481,10022,0.0,2.0,Blink Network
Coliseum Park Apts - Central Parking,124141,40.768432,-73.984033,10019,0.0,1.0,Blink Network
Astor Place,124144,40.7297,-73.991565,10003,0.0,2.0,Blink Network
Superior Ink,124147,40.737537,-74.00983,10014,0.0,2.0,Blink Network
TATABROOKFIELD #3,143191,40.755093,-73.955605,10044,0.0,1.0,ChargePoint Network
CITYLIGHTS QUEENS LANDING,144109,40.745011,-73.957424,11109,0.0,2.0,ChargePoint Network
Shops at Skyview center,146876,40.75619,-73.8363,11354,3.0,1.0,Electrify America
Glenwood Management - Paramount Garage,147009,40.74793,-73.974556,10016,0.0,1.0,Non-Networked
Queens Center Mall,147204,40.73487,-73.87038,11373,3.0,1.0,Electrify America
Mall at Bay Plaza - Tesla Supercharger,149299,40.863231,-73.828839,10475,12.0,0.0,Tesla
Atlantic Center - Tesla Supercharger,149300,40.683715,-73.974337,11217,12.0,0.0,Tesla
The Shops at Atlas Park - Tesla Supercharger,149312,40.707998,-73.866983,11385,10.0,0.0,Tesla
iPark NYC 555 West Garage Corp. - Tesla Destination,150502,40.749296,-74.006017,10011,0.0,3.0,Tesla Destination
iPark NYC E 80th Street - Tesla Destination,150517,40.77331,-73.952621,10075,0.0,3.0,Tesla Destination
Icon Parking 245 E 19th St. - Tesla Destination,150520,40.735608,-73.983111,10010,0.0,3.0,Tesla Destination
iPark NYC 455 Central Park West - Tesla Destination,150521,40.797771,-73.96142,10025,0.0,3.0,Tesla Destination
East West Tower Garage - Tesla Destination,150531,40.762331,-73.825583,11354,0.0,4.0,Tesla Destination
333 Schermerhorn Garage - The Hub - Tesla Destination,150532,40.686983,-73.980498,11217,0.0,4.0,Tesla Destination
528 W 162nd Garage-PARK-it - Tesla Destination,150533,40.836588,-73.941328,10033,0.0,4.0,Tesla Destination
4320 Broadway-PARK-it - Tesla Destination,150534,40.852461,-73.934084,10033,0.0,4.0,Tesla Destination
506 W 181 St Garage-PARK-it - Tesla Destination,150535,40.848358,-73.931743,10033,0.0,4.0,Tesla Destination
One Blue Slip-Greenpoint - Tesla Destination,150540,40.736562,-73.959195,11222,0.0,5.0,Tesla Destination
Bruno's Bakery and Restaurant Forest Ave - Tesla Destination,150541,40.629216,-74.111537,10310,0.0,2.0,Tesla Destination
Icon Parking 202 E 18th Street - Tesla Destination,150570,40.735496,-73.985024,10003,0.0,2.0,Tesla Destination
CenterPark 4172 Broadway - Tesla Destination,150571,40.847422,-73.937922,10033,0.0,4.0,Tesla Destination
Icon Parking 175 W 90th Street - Tesla Destination,150572,40.790046,-73.972531,10024,0.0,4.0,Tesla Destination
Enterprise Parking 545 Washington Ave - Tesla Destination,150573,40.681953,-73.964405,11238,0.0,4.0,Tesla Destination
Center Park 250 Albany - Tesla Destination,150574,40.709803,-74.015771,10280,0.0,4.0,Tesla Destination
Enterprise Parking 150 Myrtle Ave - Tesla Destination,150575,40.693476,-73.982605,11201,0.0,4.0,Tesla Destination
Enterprise Parking 147 Flatbush Avenue Extension - Tesla Destination,150576,40.695154,-73.983861,11201,0.0,4.0,Tesla Destination
MPG Parking 98-41 Queens Blvd - Tesla Destination,150577,40.728618,-73.856054,11374,0.0,4.0,Tesla Destination
LAZ Parking 133-59 Roosevelt Ave - Tesla Destination,150578,40.758956,-73.832331,11354,0.0,4.0,Tesla Destination
LAZ Parking 136-20 38th Ave - Tesla Destination,150579,40.760965,-73.829807,11354,0.0,4.0,Tesla Destination
IMPark 188 E 78th St - Tesla Destination,150580,40.773665,-73.958333,10075,0.0,2.0,Tesla Destination
IMPark 302 2nd St - Tesla Destination,150581,40.674312,-73.98488,11215,0.0,4.0,Tesla Destination
IPark 255 Schermerhorn - Tesla Destination,150582,40.687913,-73.983039,11217,0.0,4.0,Tesla Destination
IPark 99 3rd Avenue - Tesla Destination,150583,40.683126,-73.982088,11217,0.0,4.0,Tesla Destination
PV Parking 34-11 Steinway - Tesla Destination,150584,40.7560685,-73.9204663,11101,0.0,4.0,Tesla Destination
"Sylvan Parking 23-25 31st St, Astoria - Tesla Destination",150585,40.77364,-73.91352,11105,0.0,4.0,Tesla Destination
Sylvan Parking 136-33 37th Ave - Tesla Destination,150586,40.761959,-73.829813,11354,0.0,3.0,Tesla Destination
IMPark 92-77 Queens Blvd - Tesla Destination,150587,40.732255,-73.866674,11374,0.0,4.0,Tesla Destination
300 W 135 St - Little Man Parking - Tesla Destination,150596,40.816777,-73.947435,10030,0.0,4.0,Tesla Destination
4545 Center Blvd-TF Cornerstone LIC - Tesla Destination,150600,40.747676,-73.956012,11109,0.0,8.0,Tesla Destination
ProPark 110-45 Queens Blvd - Tesla Destination,150614,40.719885,-73.83857,11375,0.0,4.0,Tesla Destination
ProPark 29-10 Broadway - Tesla Destination,150616,40.7623317,-73.9269683,11106,0.0,4.0,Tesla Destination
3050 Corlear Ave - Nagle Parking Inc. - Tesla Destination,150624,40.880142,-73.907385,10463,0.0,4.0,Tesla Destination
Sylvan Gerard Garage - Tesla Destination,150639,40.7218556,-73.8491057,11375,0.0,4.0,Tesla Destination
19-80 Steinway - Tesla Destination,150649,40.776957,-73.90115,11105,0.0,4.0,Tesla Destination
2702 Queens Plaza South - Tesla Destination,150653,40.749941,-73.939887,11101,0.0,6.0,Tesla Destination
Icon Parking E 72nd Street - Tesla Destination,150660,40.766554,-73.952905,10021,0.0,5.0,Tesla Destination
GGMC Parking MODA - Tesla Destination,150686,40.705133,-73.801443,11432,0.0,7.0,Tesla Destination
Bruno's Bakery and Restaurant Hylan Blvd - Tesla Destination,150697,40.588091,-74.089936,10305,0.0,2.0,Tesla Destination
Manhattan Parking 110 LLC - Tesla Destination,150722,40.803934,-73.966049,10025,0.0,3.0,Tesla Destination
Outerbridge Commons - Tesla Supercharger,152158,40.527543,-74.23131,10309,12.0,0.0,Tesla
Queens Crossing - Tesla Supercharger,153417,40.760856,-73.829765,11354,4.0,0.0,Tesla
Delancey and Essex Municipal Parking Garage,155100,40.719319,-73.988197,10002,4.0,8.0,EV Connect
WCS NS1 SOUTHERN,162156,40.850625,-73.881132,10460,0.0,2.0,ChargePoint Network
MASPETH FEDERAL MASPETH 1,162165,40.726232,-73.895705,11378,0.0,2.0,ChargePoint Network
MP 102 LLC MP 102 LLC,162472,40.791267,-73.952039,10029,0.0,2.0,ChargePoint Network
Apple West Parking,163485,40.795783,-73.973678,10025,0.0,4.0,Blink Network
Gateway Center at Bronx Terminal Market,164227,40.822142,-73.931128,10451,0.0,2.0,Blink Network
Manhattan Plaza,164442,40.759223,-73.992703,10036,0.0,2.0,Blink Network
Tribeca Green,164713,40.71695,-74.014948,10282,0.0,2.0,Blink Network
I Park - 145 W 56th St,164738,40.764609,-73.979517,10019,0.0,2.0,Blink Network
Carnegie Hill,164751,40.784865,-73.948526,10128,0.0,2.0,Blink Network
GMC 400 East 56th Street,166325,40.757223,-73.963011,10022,0.0,6.0,EV Connect
Staten Island University Hospital (South Side 375 Sequine Ave),166366,40.516758,-74.196379,10309,0.0,4.0,EV Connect
Staten Island University Hospital (North Side 475 Seaview Ave.),166368,40.584709,-74.086124,10305,0.0,8.0,EV Connect
Staten Island Mall Dave & Buster's,166727,40.58269775,-74.1678755,10314,0.0,4.0,Volta
Staten Island Mall Richmond Ave Entrance,166728,40.5817345,-74.1684335,10314,0.0,2.0,Volta
Staten Island Mall Tommy's Tavern + Tap,166729,40.5811275,-74.1679225,10314,0.0,2.0,Volta
Staten Island Mall Macy's,166730,40.583139,-74.166332,10314,0.0,2.0,Volta
HAMPTON INN STATION 1,168146,40.612696,-74.179012,10314,0.0,2.0,ChargePoint Network
532 W 122nd St,168414,40.811446,-73.960477,10027,0.0,4.0,EV Connect
STATION 4TH FL MOTORGATE 3,168524,40.764464,-73.946924,10044,0.0,2.0,ChargePoint Network
STATION 4TH FL MOTORGATE #2,168525,40.764208,-73.947198,10044,0.0,2.0,ChargePoint Network
551W21 SR Capital - Tesla Destination,168556,40.747437,-74.007111,10011,0.0,6.0,Tesla Destination
577 Baltic Street - Adam America Real Estate - Tesla Destination,168557,40.681151,-73.982101,11217,0.0,4.0,Tesla Destination
610 Warren Street - Tesla Destination,168558,40.681263,-73.981155,11217,0.0,6.0,Tesla Destination
Enterprise Parking 219 E 69th St - Tesla Destination,168757,40.767342,-73.960835,10065,0.0,3.0,Tesla Destination
iPark 314 W 120th Street - Tesla Destination,168885,40.807356,-73.954354,10025,0.0,3.0,Tesla Destination
Park Kwik - 110 Livingston - Tesla Destination,169008,40.6909872,-73.9901305,11201,0.0,4.0,Tesla Destination
Park Kwik - 211 Atlantic - Tesla Destination,169009,40.6910734,-73.9901973,11201,0.0,6.0,Tesla Destination
Park Kwik-300 Ashland - Tesla Destination,169010,40.68608,-73.978252,11217,0.0,4.0,Tesla Destination
Park N Go - E 121 St - Tesla Destination,169011,40.800793,-73.9371,10035,0.0,4.0,Tesla Destination
Parkit 200 West End Ave - Tesla Destination,169014,40.778221,-73.985072,10023,0.0,5.0,Tesla Destination
"The Standard, East Village - Tesla Destination",169201,40.727797,-73.990746,10004,0.0,3.0,Tesla Destination
"Trump Golf Links, Ferry Point - Tesla Destination",169223,40.8124589,-73.83447,10465,0.0,8.0,Tesla Destination
Imperial Parking,169851,40.7440113,-73.9741155,10016,0.0,2.0,Blink Network
STATION 4TH FL MOTORGATE #1,169880,40.764429,-73.946793,10044,0.0,2.0,ChargePoint Network
NYC FLEET DPR_ICAHN_1_L3,170122,40.792194,-73.92455,10035,1.0,0.0,ChargePoint Network
The St. Regis,170181,40.7613979,-73.9746128,10022,0.0,1.0,Blink Network
SKYVIEW APARTME SKYVIEW ST2,171342,40.908654,-73.905897,10471,0.0,2.0,ChargePoint Network
SKYVIEW APARTME SKYVIEW ST1,171476,40.90872,-73.905883,10471,0.0,2.0,ChargePoint Network
WCS NS1 ASIA,173506,40.846612,-73.876323,10460,0.0,2.0,ChargePoint Network
TATABROOKFIELD #2,174179,40.755077,-73.955605,10044,0.0,1.0,ChargePoint Network
TATABROOKFIELD GATEWAY #1,174180,40.755024,-73.955605,10044,0.0,1.0,ChargePoint Network
TATABROOKFIELD #7,174182,40.755314,-73.955605,10044,0.0,1.0,ChargePoint Network
TATABROOKFIELD #6,174183,40.75516,-73.955605,10044,0.0,1.0,ChargePoint Network
TATABROOKFIELD #5,174184,40.755142,-73.9556,10044,0.0,1.0,ChargePoint Network
TATABROOKFIELD #4,174185,40.755108,-73.955605,10044,0.0,1.0,ChargePoint Network
HAMPTON INN STATION 4,181661,40.612678,-74.178885,10314,0.0,2.0,ChargePoint Network
HAMPTON INN STATION 2,181662,40.612688,-74.178948,10314,0.0,2.0,ChargePoint Network
HAMPTON INN STATION 3,181663,40.612671,-74.17882,10314,0.0,2.0,ChargePoint Network
HAMPTON INN STATION 5,181664,40.612706,-74.179076,10314,0.0,2.0,ChargePoint Network
NYC FLEET DPR_ICAHN_3_L3,181932,40.7923,-73.92468,10035,1.0,0.0,ChargePoint Network
NYC FLEET DPR_ICAHN_2_L3,181933,40.79237,-73.924644,10035,1.0,0.0,ChargePoint Network
NYC FLEET DPROCBRZAC_1_L3,184949,40.58297,-74.07527,10305,1.0,0.0,ChargePoint Network
NYC FLEET DPROCBRZAC_2_L3,185142,40.582787,-74.07527,10305,1.0,0.0,ChargePoint Network
Belmont Parking,187814,40.773472,-73.955287,10028,0.0,1.0,Blink Network
Red Ball Garage,187816,40.744731,-73.981125,10016,0.0,1.0,Blink Network
Travelers Parking,187817,40.73491,-74.001634,10014,0.0,1.0,Blink Network
Manhattan Parking Group,189112,40.768721,-73.983487,10019,0.0,1.0,Blink Network
Laureate Garage,189363,40.78131,-73.980834,10023,0.0,2.0,Blink Network
Kew Garage,189547,40.713705,-73.831217,11415,0.0,1.0,Blink Network
GMC Parking Garage - 200 Central,190107,40.766719,-73.979533,10019,0.0,1.0,Blink Network
Discover 97 Parking LLC,190531,40.793416,-73.967719,10025,0.0,2.0,Blink Network
iPark - 67th Street,190532,40.769134,-73.968707,10065,0.0,1.0,Blink Network
Hunters Point South Crossing,191469,40.742397,-73.959225,11101,0.0,2.0,Blink Network
5935 Broadway,191505,40.888461,-73.899119,10463,0.0,4.0,FLO
3474 Putnam Place,191506,40.879413,-73.875485,10467,0.0,2.0,FLO
4 W 93rd St,192949,40.789958,-73.966488,10025,0.0,2.0,FLO
35-1 38th St,193925,40.755417,-73.923072,11101,0.0,4.0,FLO
31-99 33rd St,193926,40.761412,-73.923755,11106,0.0,2.0,FLO
NYC Parking Kent,193979,40.709168,-73.968491,11211,0.0,2.0,Blink Network
iPark - Enterprise Parking,193980,40.748359,-73.972213,10016,0.0,1.0,Blink Network
170 E End Ave,194168,40.775792,-73.944015,10128,0.0,2.0,FLO
498 E 67th St,194169,40.763723,-73.956354,10065,0.0,2.0,FLO
101 E 78th St,194170,40.774878,-73.960671,10075,0.0,2.0,FLO
383 Court St,194646,40.680484,-73.996719,11231,0.0,2.0,FLO
99 Prospect Park W,194647,40.66696,-73.975032,11215,0.0,2.0,FLO
Revel Brooklyn Superhub,194700,40.69933379421704,-73.94966479629517,11206,50.0,0.0,EVGATEWAY
"Walgreens - Brooklyn, NY #15097",194845,40.6567801,-73.9777597,11215,0.0,1.0,Blink Network
iPark - 59 Allen Street Garage,195054,40.717195,-73.991658,10002,0.0,2.0,Blink Network
33 Norman Ave,195667,40.724591,-73.954512,11222,0.0,4.0,FLO
1235 Linden Blvd,195668,40.654381,-73.913436,11212,0.0,4.0,FLO
1065 Elton St,196329,40.657441,-73.874619,11239,0.0,4.0,FLO
NYC FLEET DCASCSTHSE_1_L3,196564,40.711327,-73.89229,11379,1.0,0.0,ChargePoint Network
NYC FLEET DCASCSTHSE_3_L3,196565,40.711273,-73.89222,11379,1.0,0.0,ChargePoint Network
NYC FLEET DCASCSTHSE_2_L3,196566,40.711266,-73.89218,11379,1.0,0.0,ChargePoint Network
626 Sheepshead Bay Rd - Parking,197548,40.57891694756012,-73.97537047469709,11224,0.0,6.0,Blink Network
597 Clarkson Ave,197855,40.656102,-73.940436,11203,0.0,4.0,FLO
134-10 225th St,198164,40.677402,-73.745064,11413,0.0,2.0,FLO
167-149 Meeker Ave,199108,40.714318,-73.953186,11211,0.0,6.0,FLO
831 3rd Ave,199508,40.656766,-74.004802,11232,0.0,6.0,FLO
115 Fort Washington Ave,200474,40.839756,-73.943345,10032,0.0,2.0,FLO
2 Bedford Park Blvd W,200599,40.875421,-73.893941,10468,0.0,4.0,FLO
NYU NYU # 2,200987,40.728283,-73.997251,10012,0.0,2.0,ChargePoint Network
NYU NYU # 1,200988,40.72808,-73.99724,10012,0.0,2.0,ChargePoint Network
3500 Dekalb Ave,201636,40.882337,-73.880265,10467,0.0,2.0,FLO
7 Marcus Garvey Blvd,202055,40.700039,-73.941261,11206,0.0,2.0,FLO
145 Brooklyn Ave,202163,40.674612,-73.944569,11213,0.0,2.0,FLO
484 43rd St,202164,40.649116,-74.006479,11232,0.0,2.0,FLO
352 8th St,202165,40.668517,-73.983283,11215,0.0,2.0,FLO
395 Lenox Rd,202766,40.654476,-73.946741,11203,0.0,4.0,FLO
419 Stuyvesant Ave,202930,40.679727,-73.931347,11233,0.0,2.0,FLO
33-10 Queens Blvd,204691,40.744363,-73.93112,11101,0.0,4.0,FLO
Baychester Retail III LLC,205822,40.869205,-73.831633,10475,0.0,2.0,EV Connect
Northeast Bronx YMCA,205826,40.8827858370269,-73.8419855959349,10466,0.0,4.0,Non-Networked
LIN-DAN RICK,205858,40.736148,-73.980154,10010,0.0,2.0,ChargePoint Network
LIN-DAN MORTY,205859,40.736161,-73.980267,10010,0.0,2.0,ChargePoint Network
BORO PARK BORO CHARGE 1,206908,40.638583,-73.998687,11219,0.0,2.0,ChargePoint Network
BORO PARK BORO CHARGE 4,206911,40.638561,-73.998686,11219,0.0,2.0,ChargePoint Network
BORO PARK BORO CHARGE 5,206912,40.63855,-73.998668,11219,0.0,2.0,ChargePoint Network
BORO PARK BORO CHARGE 10,206913,40.638531,-73.99858,11219,0.0,2.0,ChargePoint Network
BORO PARK BORO CHARGE 9,206914,40.638557,-73.998678,11219,0.0,2.0,ChargePoint Network
BORO PARK BORO CHARGE 8,206915,40.638536,-73.99864,11219,0.0,2.0,ChargePoint Network
BORO PARK BORO CHARGE 6,206916,40.638581,-73.998691,11219,0.0,2.0,ChargePoint Network
BORO PARK BORO CHARGE 3,206917,40.63851,-73.998605,11219,0.0,2.0,ChargePoint Network
BORO PARK BORO CHARGE 2,206918,40.638594,-73.998676,11219,0.0,2.0,ChargePoint Network
1 WATERLINE STATION#8,207729,40.772871,-73.992514,10069,0.0,2.0,ChargePoint Network
1 WATERLINE STATION#3,207730,40.773005,-73.992868,10069,0.0,2.0,ChargePoint Network
1 WATERLINE STATION#2,207731,40.772952,-73.992622,10069,0.0,2.0,ChargePoint Network
1 WATERLINE STATION#1,207795,40.772896,-73.992536,10069,0.0,2.0,ChargePoint Network
1 WATERLINE STATION#5,207796,40.772904,-73.992514,10069,0.0,2.0,ChargePoint Network
1 WATERLINE STATION#4,207888,40.77292,-73.992546,10069,0.0,2.0,ChargePoint Network
1 WATERLINE STATION#6,207889,40.772912,-73.992589,10069,0.0,2.0,ChargePoint Network
Stop & Shop #566 - Arverne By-the-sea,212485,40.5898135,-73.7999495,11692,0.0,2.0,Volta
Icon Mercury Parking,213081,40.76324463,-73.98864745,10019,0.0,1.0,Blink Network
Eventi Hotel,213916,40.758681,-73.98135,10001,0.0,1.0,Blink Network
125 W 76th Street,216618,40.780397,-73.977729,10023,0.0,2.0,FLO
INDUSTRY CITY LOT B EAST,217354,40.659338,-74.006454,11232,0.0,2.0,ChargePoint Network
35-58 72nd St,217408,40.74894,-73.893721,11372,0.0,2.0,FLO
Bridge Towers Location 1,218294,40.848202,-73.935857,10033,0.0,2.0,Blink Network
Energy Plus Site 8,219453,40.781104,-73.984478,10023,0.0,1.0,Blink Network
BORO PARK BORO CHARGE 7,220319,40.638545,-73.998658,11219,0.0,2.0,ChargePoint Network
Hylan New Dorp Plaza,220702,40.569063603,-74.109547715,10306,0.0,2.0,Volta
BRT STATION 1,220960,40.63557,-74.01628,11220,0.0,2.0,ChargePoint Network
Prestige Parking Corp,221322,40.7565187377,-73.9610743999,10022,0.0,2.0,Blink Network
First Avenue Parking,221326,40.745096,-73.971921,10016,0.0,2.0,Blink Network
HCBR STATION 1,221556,40.619335,-74.029466,11209,0.0,1.0,ChargePoint Network
266 13th St,222574,40.667017,-73.988698,11215,0.0,2.0,FLO
160 W 84th St,222579,40.786312,-73.97569,10024,0.0,2.0,FLO
Rapid Park - 204 W 101st 2nd Floor,223088,40.79743,-73.9687,10025,0.0,4.0,LIVINGSTON
Rapid Park - 205 W 101st 2nd Floor,223089,40.79766,-73.96838,10025,0.0,4.0,LIVINGSTON
Rapid Park - 44 State St,223100,40.6918,-73.99829,11201,0.0,6.0,LIVINGSTON
411 West 55th St,223115,40.76709,-73.98733,10019,0.0,4.0,LIVINGSTON
301 E. 79th St.,223240,40.76939,-73.96546,10075,0.0,4.0,LIVINGSTON
550 W. 45th St.,223241,40.7624,-73.99635,10036,0.0,4.0,LIVINGSTON
435 E. 55th St.,223256,40.75657,-73.96226,10022,0.0,4.0,LIVINGSTON
449 East 49th Street,223258,40.75267,-73.96482,10022,0.0,6.0,LIVINGSTON
4 W 21st St.,223265,40.74057,-73.99147,10010,0.0,4.0,LIVINGSTON
210 W 76th St.,223266,40.78126,-73.98044,10023,0.0,4.0,LIVINGSTON
142 E 31st St.,223267,40.74415,-73.98046,10016,0.0,4.0,LIVINGSTON
44 W 62nd St.,223268,40.7708,-73.98323,10023,0.0,4.0,LIVINGSTON
333 E 75th St.,223269,40.7702,-73.95525,10021,0.0,4.0,LIVINGSTON
225 W 49th St,223273,40.76154,-73.98518,10019,0.0,4.0,LIVINGSTON
110 East End Ave,223281,40.77447,-73.94599,10028,0.0,4.0,LIVINGSTON
200 East End Ave,223282,40.77729,-73.94355,10128,0.0,4.0,LIVINGSTON
55 East End Ave,223283,40.772,-73.94639,10028,0.0,6.0,LIVINGSTON
305 East 80th Street,223292,40.77397,-73.9539,10075,0.0,4.0,LIVINGSTON
231 E 94th Street,223297,40.78351,-73.94888,10128,0.0,4.0,LIVINGSTON
203 E 71st St.,223298,40.76894,-73.96047,10021,0.0,4.0,LIVINGSTON
181 E 73rd Street,223299,40.77082,-73.96068,10021,0.0,4.0,LIVINGSTON
191 East 71st Street,223300,40.76945,-73.96154,10021,0.0,4.0,LIVINGSTON
Lincoln Square Garage,223392,40.776152,-73.98282,10023,0.0,1.0,Blink Network
Kissena Garage,223486,40.753624,-73.823573,11355,0.0,1.0,Blink Network
320 Mason Ave,223526,40.584984,-74.088044,10305,0.0,4.0,FLO
Supercharge NYC,223588,40.7136044677631,-73.93309885767226,11211,2.0,2.0,CHARGELAB
G & M REALTY 2 STATION 2,223833,40.745401,-73.946148,11101,0.0,2.0,ChargePoint Network
G & M REALTY 2 STATION 3,223834,40.745399,-73.946226,11101,0.0,2.0,ChargePoint Network
G & M REALTY 2 STATION 4,223835,40.745344,-73.94618,11101,0.0,2.0,ChargePoint Network
G & M REALTY 2 STATION 5,223836,40.745355,-73.94625,11101,0.0,2.0,ChargePoint Network
Court Square Municipal Parking Garage,224171,40.745475,-73.942225,11101,3.0,7.0,EV Connect
G & M REALTY 2 STATION 1,224248,40.745393,-73.946234,11101,0.0,2.0,ChargePoint Network
QT STATION 1,224507,40.753602,-73.899789,11377,0.0,2.0,ChargePoint Network
QT STATION 3,224508,40.753601,-73.899806,11377,0.0,2.0,ChargePoint Network
QT STATION 2,224509,40.753602,-73.899825,11377,0.0,2.0,ChargePoint Network
535 Carlton Ave,225118,40.68092,-73.97076,11238,0.0,4.0,LIVINGSTON
ARCHER GREEN MI STATION 1,225478,40.70522,-73.79147,11433,0.0,1.0,ChargePoint Network
ARCHER GREEN MI STATION 4,225479,40.70525,-73.791534,11433,0.0,1.0,ChargePoint Network
ARCHER GREEN MI STATION 2,225480,40.70524,-73.791466,11433,0.0,1.0,ChargePoint Network
ARCHER GREEN MI STATION 3,225481,40.705254,-73.7915,11433,0.0,1.0,ChargePoint Network
ARCHER GREEN MI STATION 5,225482,40.70568,-73.791504,11433,0.0,1.0,ChargePoint Network
30-10 35th Street,225576,40.765233,-73.918436,11103,0.0,2.0,FLO
92746 CHARGEPOINT 1,225676,40.764935,-73.96063,10065,0.0,2.0,ChargePoint Network
92746 CHARGEPOINT 2,225677,40.764945,-73.960624,10065,0.0,2.0,ChargePoint Network
81-09 41st Ave,225691,40.745853,-73.884134,11373,0.0,2.0,FLO
Tunnel Garage,225878,40.74508,-73.97604,10001,0.0,1.0,Blink Network
46-71 30th Place,226845,40.743643,-73.936591,11101,0.0,6.0,FLO
35 Red Cross Pl,226846,40.699487,-73.989516,11201,0.0,6.0,FLO
PVECSTATION1 STATION 1,226860,40.717646,-73.812189,11435,0.0,2.0,ChargePoint Network
PVECSTATION1 PAKWAY VILLAGE,227359,40.717866,-73.812868,11435,0.0,2.0,ChargePoint Network
PVECSTATION1 PARKWAY VILLAGE,227360,40.717053,-73.808799,11432,0.0,2.0,ChargePoint Network
Walgreens,228330,40.656459,-73.977527,11215,1.0,0.0,eVgo Network
200 Liberty,229902,40.710179,-74.013169,10006,0.0,2.0,AMPUP
DSL Marketing and Energy Icon Parking,229921,40.761698,-73.978338,10019,0.0,4.0,AMPUP
King's County Parking,229922,40.656148,-73.940355,11203,0.0,4.0,AMPUP
Riverdale Fast Parking,230188,40.879501,-73.903603,10463,0.0,8.0,AMPUP
New Tech Energy,230231,40.628872,-73.971992,11230,0.0,1.0,AMPUP
Brooklyn Renaissance Plaza,230783,40.693463,-73.988245,11201,0.0,6.0,EV Connect
Forest Hills Tower,230790,40.715319,-73.830563,11375,0.0,6.0,EV Connect
Flushing Plaza,230791,40.757772,-73.826935,11355,0.0,6.0,EV Connect
86-86 Palo Alto St,230831,40.718731,-73.773113,11423,0.0,2.0,EV Connect
GMC 127 East 83rd,230846,40.777932,-73.957152,10028,0.0,4.0,EV Connect
New York Presbyterian Hospital,230870,40.668552,-73.97869,11215,0.0,6.0,EV Connect
LGA Airpark,233084,40.77049,-73.87014,11369,0.0,20.0,LIVINGSTON
10 East 30th St,233091,40.74538,-73.98571,10016,0.0,6.0,LIVINGSTON
575 1st Ave,233092,40.74282,-73.97438,10016,0.0,4.0,LIVINGSTON
171 E 84th St.,233094,40.77798,-73.95555,10028,0.0,4.0,LIVINGSTON
The Rockaway Hotel,235400,40.581587,-73.830086,11694,0.0,2.0,FLASH
1 WATERLINE STATION#7,237081,40.772839,-73.992493,10019,0.0,2.0,ChargePoint Network
The Forge,241192,40.74679,-73.94111,11101,0.0,2.0,Blink Network
Parkash 4769 LLC - 4769 White Plains,241222,40.905461,-73.849791,10470,0.0,7.0,Blink Network
Popeyes,250759,40.876952,-73.845534,10469,0.0,6.0,FLO
iPark NYC 75 Wall Street - Tesla Destination,250845,40.704776,-74.008276,10005,0.0,3.0,Tesla Destination
GGMC 91 E 9th Street - Tesla Destination,250852,40.730723,-73.990854,10003,0.0,3.0,Tesla Destination
Icon Parking 515 E 72nd Street - Tesla Destination,250866,40.766545,-73.95292,10021,0.0,3.0,Tesla Destination
MPG Parking,251159,40.758967,-73.995189,10036,0.0,2.0,Blink Network
CORP COMM 3 STATION 3 CC3,252135,40.604086,-74.179358,10314,0.0,2.0,ChargePoint Network
CORP COMM 3 STATION 8 CC3,252136,40.604324,-74.179675,10314,0.0,2.0,ChargePoint Network
CORP COMM 3 STATION 10 CC3,252137,40.60429,-74.17979,10314,0.0,2.0,ChargePoint Network
CORP COMM 3 STATION 1 CC3,252139,40.604213,-74.179561,10314,0.0,2.0,ChargePoint Network
CORP COMM 3 STATION 9 CC3,252140,40.604082,-74.179499,10314,0.0,2.0,ChargePoint Network
CORP COMM 3 STATION 6 CC3,252141,40.603961,-74.179472,10314,0.0,2.0,ChargePoint Network
CORP COMM 3 STATION 4 CC3,252142,40.60401,-74.179524,10314,0.0,2.0,ChargePoint Network
CORP COMM 3 STATION 5 CC3,252143,40.604322,-74.179683,10314,0.0,2.0,ChargePoint Network
CORP COMM 3 STATION 2 CC3,252144,40.604154,-74.179546,10314,0.0,2.0,ChargePoint Network
182 E 73rd St.,252709,40.77049,-73.96077,10021,0.0,4.0,LIVINGSTON
IKEA USA BROOKLYN 1,252884,40.671397,-74.011643,11231,0.0,1.0,ChargePoint Network
IKEA USA BROOKLYN 2,252885,40.671379,-74.011649,11231,0.0,1.0,ChargePoint Network
IKEA USA BROOKLYN 3,252886,40.671393,-74.011584,11231,0.0,1.0,ChargePoint Network
IKEA USA BROOKLYN 4,252887,40.671404,-74.011655,11231,0.0,1.0,ChargePoint Network
Empire Outlets Garage,253562,40.644065,-74.075153,10301,0.0,5.0,Volta
20RTAC GARAGE BOTTOM,254304,40.716131,-74.015548,10282,0.0,2.0,ChargePoint Network
20RTAC GARAGE TOP,254305,40.716132,-74.015557,10282,0.0,2.0,ChargePoint Network
Central Parking - 115 E 87th St,255076,40.780678,-73.956269,10128,0.0,2.0,Blink Network
iPark - Paradise Garage,255093,40.733347,-73.858012,11374,0.0,2.0,Blink Network
Icon Parking - Hudson,255122,40.728704,-74.00765,10014,0.0,1.0,Blink Network
Sylvan Parking - Pinnacle Garage,255150,40.718455,-73.83651,11375,0.0,1.0,Blink Network
Park-it Area Garage - Tesla Destination,256058,40.7156449097173,-73.9808096971768,10002,0.0,3.0,Tesla Destination
EVPassport - 200 E 24th St Garage,256128,40.7392528900457,-73.9823287610015,10010,0.0,2.0,Non-Networked
550 Prospect Place,257489,40.675159,-73.958501,11238,0.0,7.0,Blink Network
26-19 2nd Street,257491,40.7732937,-73.934466,11102,0.0,2.0,Blink Network
444 Clinton,257492,40.684979,-73.967922,11238,0.0,11.0,Blink Network
Icon Parking - Claridge 87 Parking,257516,40.7796871,-73.952595,10128,0.0,1.0,Blink Network
Highrise Parking,257528,40.777905,-73.982299,10023,0.0,1.0,Blink Network
The Westport,257757,40.768211,-73.989479,10019,0.0,1.0,Blink Network
Superior Realty Group,257758,40.61517985216326,-74.0319846196921,11209,0.0,4.0,Blink Network
The Caledonia,259812,40.743832,-74.006578,10011,0.0,2.0,Blink Network
Central Parking - Tower 31,260005,40.74709,-73.98667,10001,0.0,2.0,Blink Network
Icon Parking - 111 Eighth Avenue,260074,40.741421,-74.003186,10011,0.0,1.0,Blink Network
75 Park Place,260078,40.714463,-74.01098,10007,0.0,1.0,Blink Network
NYC FLEET DPRWFMARINA-S2,260377,40.761212,-73.857765,11368,0.0,1.0,ChargePoint Network
20RTAC STATION EE52,261000,40.716133,-74.01556,10282,0.0,2.0,ChargePoint Network
KOEPPEL HYUNDAI CPE250 1,261698,40.754038,-73.919413,11101,1.0,0.0,ChargePoint Network
KOEPPEL HYUNDAI CPE250 2,261699,40.754044,-73.919245,11101,1.0,0.0,ChargePoint Network
Queens Borough Hall Municipal Parking Garage,261745,40.714376,-73.826095,11415,3.0,31.0,EV Connect
NYC FLEET DPRROCKAWAY30,277610,40.592503,-73.762802,11691,0.0,1.0,ChargePoint Network
123 Leonard St,298593,40.716079,-74.002165,10013,0.0,4.0,FLO
532 Neptune Upper Parking,302532,40.57978,-73.97439,11211,0.0,8.0,Non-Networked
DEEPDALE MANAGEMENT,307006,40.757564,-73.728618,11362,0.0,2.0,ChargePoint Network
Dime,307032,40.70983,-73.95767,11211,15.0,0.0,REVEL
430809  Avalon Riverview North,309419,40.7449626,-73.9568845,11109,0.0,5.0,Blink Network
NYC Parking 155 East 76th Street Garage Corp.,309670,40.77292688873804,-73.95955810985014,10021,0.0,6.0,Blink Network
Jeffrey Gardens Public Access,310515,40.75717,-73.76397,11361,0.0,1.0,AMPED_UP
CITYLIGHTS 5TH FLOOR 1,310610,40.744127,-73.95684,11109,0.0,2.0,ChargePoint Network
CITYLIGHTS 5TH FLOOR 2,310611,40.744152,-73.956666,11109,0.0,2.0,ChargePoint Network
Beitel Group,311701,40.6449449,-73.9914684,11219,0.0,2.0,Blink Network
COM1-1 COM1-2,313672,40.747434,-74.000085,10001,1.0,0.0,ChargePoint Network
COM1-1 COM1-1,313682,40.747486,-74.000069,10001,1.0,0.0,ChargePoint Network
The Bridge Towers 7,316570,40.847563,-73.934481,10033,0.0,5.0,Blink Network
Bridge Towers Location 2,316571,40.847958,-73.935109,10033,0.0,3.0,Blink Network
NYC FLEET DPRWFMARNA_4_L3,316710,40.760345,-73.85546,11368,1.0,0.0,ChargePoint Network
NYC FLEET DPRWFMARNA_5_L3,316711,40.76038,-73.85531,11368,1.0,0.0,ChargePoint Network
NYC FLEET DPRWFMARNA_3_L3,316712,40.760345,-73.85537,11368,1.0,0.0,ChargePoint Network
NYC FLEET DPRWFMARNA_2_L3,316713,40.76033,-73.855286,11368,1.0,0.0,ChargePoint Network
1 WATERLINE STATION#10,316933,40.772896,-73.992546,10069,0.0,2.0,ChargePoint Network
1 WATERLINE STATION#9,316934,40.772916,-73.99263,10069,0.0,2.0,ChargePoint Network
Ravel Hotel,320967,40.75402,-73.9493,11101,0.0,2.0,TURNONGREEN
Starbucks - Tesla Supercharger,321155,40.581652,-73.985056,11224,12.0,0.0,Tesla
Circuit Chargers (Rockaway Hotel),323400,40.5815,-73.8388,11694,0.0,8.0,Non-Networked
PLAZA HYUNDAI PUBLIC LEVEL 3,323576,40.618364,-73.945066,11210,1.0,0.0,ChargePoint Network
540 WAVERLY 1,323904,40.682176,-73.96585,11238,0.0,2.0,ChargePoint Network
540 WAVERLY 2,323912,40.681764,-73.965799,11238,0.0,2.0,ChargePoint Network
540 WAVERLY 4,323913,40.682163,-73.966003,11238,0.0,2.0,ChargePoint Network
540 WAVERLY 5,323914,40.682187,-73.965853,11238,0.0,2.0,ChargePoint Network
540 WAVERLY 3,324267,40.682187,-73.965917,11238,0.0,2.0,ChargePoint Network
PLAZA HONDA PUBLIC LEVEL 3,324389,40.618355,-73.945087,11210,1.0,0.0,ChargePoint Network
351 E 83rd Street,324766,40.77533,-73.95108,10028,0.0,4.0,LIVINGSTON
SWTCH Energy Inc.,325993,40.7012,-73.9357,11206,0.0,10.0,SWTCH
10 Reade St,326605,40.713898,-74.00434,10007,0.0,2.0,FLO
Jerome-Gun Hill Road Municipal Parking Garage,327023,40.883002,-73.880698,10467,0.0,4.0,EV Connect
CENTERS HEALTHC EV-5,328293,40.673563,-73.926284,11213,0.0,2.0,ChargePoint Network
CENTERS HEALTHC EV-2,328306,40.673561,-73.926135,11213,0.0,2.0,ChargePoint Network
CENTERS HEALTHC EV-3,328307,40.673561,-73.926143,11213,0.0,2.0,ChargePoint Network
CENTERS HEALTHC EV-4,328308,40.673237,-73.925718,11213,0.0,2.0,ChargePoint Network
CENTERS HEALTHC EV-6,328311,40.673186,-73.925637,11213,0.0,2.0,ChargePoint Network
CENTERS HEALTHC EV-7,328312,40.673563,-73.926362,11213,0.0,2.0,ChargePoint Network
CENTERS HEALTHC EV-8,328313,40.673181,-73.926415,11213,0.0,2.0,ChargePoint Network
CENTERS HEALTHC EV-9,328314,40.673233,-73.925648,11213,0.0,2.0,ChargePoint Network
CENTERS HEALTHC EV-10,328315,40.6732,-73.925696,11213,0.0,2.0,ChargePoint Network
165 E 77 ST Garage,328533,40.773528,-73.959538,10075,0.0,1.0,Blink Network
C W TOYOTA SERVICE DEPT,329611,40.874265,-73.852887,10469,0.0,1.0,ChargePoint Network
CENTERS HEALTHC EV-1,329797,40.673435,-73.926002,11213,0.0,2.0,ChargePoint Network
919 Third Avenue,331436,40.759299,-73.968603,10022,0.0,1.0,Blink Network
2 Lincoln Square,331697,40.77349758816229,-73.98137367362845,10023,0.0,4.0,Blink Network
NYC FLEET DPRWFMARNA_1_L3,331871,40.760611,-73.85697,11369,1.0,0.0,ChargePoint Network
Paragon Acura,332545,40.75294433775417,-73.90461632141067,11377,1.0,0.0,Blink Network
NEW test by jimmy,333093,40.7844709,-73.956859,10128,4.0,1.0,ABM
L&L HOLDING CO. STATION 3,333406,40.760378,-73.971062,10022,0.0,2.0,ChargePoint Network
L&L HOLDING CO. NUGGET L2,333413,40.760403,-73.97105,10022,0.0,2.0,ChargePoint Network
Parking Systems at 343 E 74th,333482,40.76957,-73.95589,10021,0.0,1.0,Non-Networked
(SP+) - 101 Lincoln Ave. Garage,333527,40.80733842809466,-73.9300472661853,10454,0.0,50.0,FLASH
25 Broadway,333718,40.70568,-74.0136,10004,0.0,3.0,EVGATEWAY
391 Weirfield St,333819,40.69604,-73.90662,11237,0.0,6.0,EVGATEWAY
101-19 Rockaway Beach Blvd,333857,40.58309,-73.82213,11694,0.0,8.0,EVGATEWAY
Bronx Honda Service,333883,40.83174,-73.84485,10462,0.0,2.0,EVGATEWAY
1240 Morrison Ave,333911,40.83051,-73.87437,10472,0.0,3.0,EVGATEWAY
Airway Inn at LaGuardia,333978,40.76447,-73.8863,11370,0.0,3.0,EVGATEWAY
Manhattan Beer Distributors,334018,40.80549,-73.90049,10455,0.0,2.0,EVGATEWAY
532 Neptune Avenue,334200,40.57978,-73.97439,11224,0.0,8.0,EVGATEWAY
118 E 86th Street,334464,40.77968,-73.95657,10028,0.0,4.0,LIVINGSTON
300 East 34th,334487,40.74437,-73.97561,10016,0.0,4.0,LIVINGSTON
Rapid Park - 205 W 101st 1st Floor,334488,40.79766,-73.96838,10025,0.0,4.0,LIVINGSTON
Rapid Park - 204 W 101st 1st Floor,334499,40.79743,-73.9687,10025,0.0,4.0,LIVINGSTON
113 East 84th Street,334518,40.77866,-73.95739,10028,0.0,4.0,LIVINGSTON
Honda of Staten Island,341872,40.59751067999147,-74.0836837458115,10305,0.0,1.0,Blink Network
